1 20253U 89077A   26154.94819336 -.00000362  00000-0  00000-0 0  9996
2 20253  12.4251 351.2470 0005696  32.6477 335.1345  1.00260894260435
1 20776U 90079A   26155.14398122  .00000133  00000-0  00000-0 0  9993
2 20776  13.3446 349.9021 0002876  85.5950 262.2921  1.00271684130757
1 22787U 93056A   26154.74754959  .00000131  00000-0  00000-0 0  9992
2 22787  11.8905   3.6320 0006606   3.7751 182.5437  1.00270301118416
1 23467U 95003A   26155.32205051 -.00000015  00000-0  00000-0 0  9993
2 23467   9.7052  13.2772 0003007  51.4952 116.1322  1.00270504114826
1 23967U 96042A   26154.98640051 -.00000278  00000-0  00000-0 0  9997
2 23967  11.1046  17.1580 0005675 104.6156  83.7131  1.00218604109353
1 25544U 98067A   26155.74133726  .00008168  00000-0  15298-3 0  9993
2 25544  51.6329   1.7083 0007031 132.5880 227.5702 15.49603626569822
1 25967U 99063A   26153.99200895 -.00000181  00000-0  00000-0 0  9996
2 25967   9.8534  27.2872 0001941  17.6670 180.6760  1.00273735 97204
1 27168U 02001A   26154.85577243  .00000104  00000-0  00000-0 0  9991
2 27168  11.1637  21.9879 0099631   8.1702 189.1455  1.00273246 32820
1 27607U 02058C   26154.26409835  .00001126  00000-0  14986-3 0  9993
2 27607  64.5505 172.0623 0075520 265.0164  94.2317 14.83015002262395
1 28117U 03057A   26154.72444664 -.00000096  00000-0  00000-0 0  9995
2 28117   8.9387  33.8971 0002369  37.7432 156.8643  1.00273609 82318
1 28899U 05044A   26154.94643249 -.00000250  00000-0  00000-0 0  9996
2 28899   5.0778  43.7191 0003276  29.7378 303.1482  1.00270607 75381
1 30794U 07007B   26155.20113999 -.00000260  00000-0  00000-0 0  9999
2 30794   5.2689  73.8958 0004058   7.4291 338.9369  1.00269160 70569
1 32294U 07056B   26155.12197520  .00000151  00000-0  00000-0 0  9991
2 32294   5.2205  73.6564 0003750 355.4872 252.4278  1.00273754 68065
1 35943U 09054B   26155.64882858  .00000037  00000-0  00000+0 0  9999
2 35943   0.0515  72.5974 0003160   4.8658 112.2136  1.00271426 61187
1 36582U 10021B   26155.63903520  .00000101  00000-0  00000+0 0  9996
2 36582   0.0131   8.0706 0002397  75.8249  52.4745  1.00276514 58835
1 38098U 12011A   26155.36538861 -.00000047  00000-0  00000+0 0  9993
2 38098   0.0096  35.5561 0002040  37.8633  23.0227  1.00271937  7065
1 39034U 12075A   26155.75187182  .00000111  00000-0  00000+0 0  9994
2 39034   0.0660 354.5086 0003954  87.0726 135.0607  1.00271905 49038
1 39215U 13038A   26155.73996566  .00000145  00000-0  00000+0 0  9994
2 39215   2.9977   1.4210 0002078  71.1036 111.9149  1.00270036 43898
1 40296U 14069A   26155.22336676  .00000267  00000-0  00000-0 0  9990
2 40296  63.4422 216.6003 6652854 270.6535  19.6685  2.00592160 84974
1 40931U 15052B   25151.18580175  .00001241  00000-0  78118-4 0  9996
2 40931   6.0006  24.0987 0012733 338.8432  21.1169 14.78805930523159
1 43678U 18084H   26155.83239527  .00003226  00000-0  26166-3 0  9994
2 43678  98.1154 351.5061 0011792 211.4547 148.5971 15.00391997414360
1 43700U 18090A   26155.74019446  .00000156  00000-0  00000+0 0  9997
2 43700   0.0177   0.9674 0001949 105.4242  79.0501  1.00272777 27552
1 43803U 18099AX  26155.63215683  .00018538  00000-0  57877-3 0  9990
2 43803  97.4135 218.4269 0004292 324.7580  35.3378 15.33239560411706
1 44453U 19046A   26154.75862972 -.00000034  00000-0  00000-0 0  9992
2 44453  63.1155  52.4974 7072517 274.8288  14.7204  2.00602311 50077
1 44909U 19096E   26155.02704110  .00000001  00000-0 -44333-4 0  9998
2 44909  82.5219 348.4520 0217591 174.8762 185.4640 12.79748573300667
1 45254U 20015A   26154.50923236 -.00000086  00000-0  00000-0 0  9991
2 45254  65.5267 320.4261 6861696 278.1389  15.1539  2.00602718 46012
1 52145U 22030A   26155.01022838  .00000208  00000-0  00000-0 0  9997
2 52145  62.6784 142.2055 6780054 272.8646  17.6775  2.00615010 30760
1 57167U 23091B   26010.59363612  .08733485  25619-5  12458-2 0  9993
2 57167  97.4978  91.1570 0009532 282.8011  77.2220 16.34765267141469
1 59112U 24043Q   26154.97364330  .00039146  00000-0  52779-3 0  9990
2 59112  97.5529 304.5700 0006326 241.9322 118.1294 15.57700323125834
1 67291U 25313AV  26155.16619895  .00016254  00000-0  63454-3 0  9996
2 67291  97.3930 230.5150 0009516  48.8222 311.3836 15.25939873 24004
1 26635U 00080A   21013.46269075 0.00000000  00000-0  00000-0 0    09
2 26635   9.2857  29.8038 0014383 186.3086 173.6859  1.00273100    09
1 34810U 09020A   26118.58802400 0.00000000  00000-0  00000-0 0    05
2 34810   3.0809  80.0043 0003222 250.4250 109.5484  1.00270000    01
1 40614U 15022B   25359.93496764 0.00000000  00000-0  00000-0 0    00
2 40614   0.0160 108.2839 0003453 352.8976   7.0980  1.00270000    04
